{
  "type": "FeatureCollection",
  "features": [
    {
      "type": "Feature",
      "properties": {
        "norad_id": 66532,
        "name": "STARLINK-35914",
        "group": "last-30-days",
        "lat": 36.326876845572095,
        "lon": -176.22243700742604,
        "alt_km": 409.9214294479543,
        "timestamp": "2025-12-12T09:49:07.480991+00:00",
        "meta_object_name": "STARLINK-35914",
        "meta_object_id": "2025-265S",
        "meta_epoch": "2025-12-12T04:00:01.998720",
        "meta_mean_motion": 15.50518623,
        "meta_eccentricity": 0.0001616,
        "meta_inclination": 43,
        "meta_ra_of_asc_node": 57.2947,
        "meta_arg_of_pericenter": 242.9739,
        "meta_mean_anomaly": 321.844,
        "meta_ephemeris_type": 0,
        "meta_classification_type": "U",
        "meta_norad_cat_id": 66532,
        "meta_element_set_no": 999,
        "meta_rev_at_epoch": 490,
        "meta_bstar": 0.0014461,
        "meta_mean_motion_dot": 0.00085239,
        "meta_mean_motion_ddot": 0,
        "tle_line1": "1 66532U 25265S   25346.16668980  .00085239  00000+0  14461-2 0  9990",
        "tle_line2": "2 66532  43.0000  57.2947 0001616 242.9739 321.8440 15.50518623  4906"
      },
      "geometry": {
        "type": "Point",
        "coordinates": [
          -176.22243700742604,
          36.326876845572095
        ]
      }
    },
    {
      "type": "Feature",
      "properties": {
        "norad_id": 66533,
        "name": "STARLINK-35707",
        "group": "last-30-days",
        "lat": 35.505565370132395,
        "lon": -174.08973532220458,
        "alt_km": 410.3944231571504,
        "timestamp": "2025-12-12T09:49:07.481001+00:00",
        "meta_object_name": "STARLINK-35707",
        "meta_object_id": "2025-265T",
        "meta_epoch": "2025-12-12T04:00:01.998720",
        "meta_mean_motion": 15.50482425,
        "meta_eccentricity": 0.0001646,
        "meta_inclination": 43.0001,
        "meta_ra_of_asc_node": 57.2902,
        "meta_arg_of_pericenter": 264.433,
        "meta_mean_anomaly": 302.3198,
        "meta_ephemeris_type": 0,
        "meta_classification_type": "U",
        "meta_norad_cat_id": 66533,
        "meta_element_set_no": 999,
        "meta_rev_at_epoch": 490,
        "meta_bstar": 0.0019276,
        "meta_mean_motion_dot": 0.00114011,
        "meta_mean_motion_ddot": 0,
        "tle_line1": "1 66533U 25265T   25346.16668980  .00114011  00000+0  19276-2 0  9991",
        "tle_line2": "2 66533  43.0001  57.2902 0001646 264.4330 302.3198 15.50482425  4902"
      },
      "geometry": {
        "type": "Point",
        "coordinates": [
          -174.08973532220458,
          35.505565370132395
        ]
      }
    },
    {
      "type": "Feature",
      "properties": {
        "norad_id": 66534,
        "name": "STARLINK-35976",
        "group": "last-30-days",
        "lat": 34.64494847879267,
        "lon": -171.99484414811764,
        "alt_km": 410.3533968963666,
        "timestamp": "2025-12-12T09:49:07.481012+00:00",
        "meta_object_name": "STARLINK-35976",
        "meta_object_id": "2025-265U",
        "meta_epoch": "2025-12-12T04:00:01.998720",
        "meta_mean_motion": 15.50488057,
        "meta_eccentricity": 0.0001496,
        "meta_inclination": 43.0004,
        "meta_ra_of_asc_node": 57.2861,
        "meta_arg_of_pericenter": 259.6444,
        "meta_mean_anomaly": 309.0222,
        "meta_ephemeris_type": 0,
        "meta_classification_type": "U",
        "meta_norad_cat_id": 66534,
        "meta_element_set_no": 999,
        "meta_rev_at_epoch": 490,
        "meta_bstar": 0.0019904,
        "meta_mean_motion_dot": 0.00117816,
        "meta_mean_motion_ddot": 0,
        "tle_line1": "1 66534U 25265U   25346.16668980  .00117816  00000+0  19904-2 0  9996",
        "tle_line2": "2 66534  43.0004  57.2861 0001496 259.6444 309.0222 15.50488057  4904"
      },
      "geometry": {
        "type": "Point",
        "coordinates": [
          -171.99484414811764,
          34.64494847879267
        ]
      }
    },
    {
      "type": "Feature",
      "properties": {
        "norad_id": 66535,
        "name": "STARLINK-35514",
        "group": "last-30-days",
        "lat": 33.74928166078475,
        "lon": -169.9451432389959,
        "alt_km": 410.638530944223,
        "timestamp": "2025-12-12T09:49:07.481022+00:00",
        "meta_object_name": "STARLINK-35514",
        "meta_object_id": "2025-265V",
        "meta_epoch": "2025-12-12T04:00:01.998720",
        "meta_mean_motion": 15.50486825,
        "meta_eccentricity": 0.0001724,
        "meta_inclination": 43.0005,
        "meta_ra_of_asc_node": 57.2816,
        "meta_arg_of_pericenter": 264.6638,
        "meta_mean_anomaly": 305.9207,
        "meta_ephemeris_type": 0,
        "meta_classification_type": "U",
        "meta_norad_cat_id": 66535,
        "meta_element_set_no": 999,
        "meta_rev_at_epoch": 490,
        "meta_bstar": 0.0021878,
        "meta_mean_motion_dot": 0.0012973,
        "meta_mean_motion_ddot": 0,
        "tle_line1": "1 66535U 25265V   25346.16668980  .00129730  00000+0  21878-2 0  9998",
        "tle_line2": "2 66535  43.0005  57.2816 0001724 264.6638 305.9207 15.50486825  4900"
      },
      "geometry": {
        "type": "Point",
        "coordinates": [
          -169.9451432389959,
          33.74928166078475
        ]
      }
    },
    {
      "type": "Feature",
      "properties": {
        "norad_id": 66536,
        "name": "STARLINK-35640",
        "group": "last-30-days",
        "lat": 32.82041675402006,
        "lon": -167.94030316440555,
        "alt_km": 410.5329120139377,
        "timestamp": "2025-12-12T09:49:07.481032+00:00",
        "meta_object_name": "STARLINK-35640",
        "meta_object_id": "2025-265W",
        "meta_epoch": "2025-12-12T04:00:01.998720",
        "meta_mean_motion": 15.50491396,
        "meta_eccentricity": 0.0001272,
        "meta_inclination": 43.0002,
        "meta_ra_of_asc_node": 57.2765,
        "meta_arg_of_pericenter": 263.8341,
        "meta_mean_anomaly": 308.6644,
        "meta_ephemeris_type": 0,
        "meta_classification_type": "U",
        "meta_norad_cat_id": 66536,
        "meta_element_set_no": 999,
        "meta_rev_at_epoch": 488,
        "meta_bstar": 0.0019296,
        "meta_mean_motion_dot": 0.00114164,
        "meta_mean_motion_ddot": 0,
        "tle_line1": "1 66536U 25265W   25346.16668980  .00114164  00000+0  19296-2 0  9995",
        "tle_line2": "2 66536  43.0002  57.2765 0001272 263.8341 308.6644 15.50491396  4882"
      },
      "geometry": {
        "type": "Point",
        "coordinates": [
          -167.94030316440555,
          32.82041675402006
        ]
      }
    },
    {
      "type": "Feature",
      "properties": {
        "norad_id": 66537,
        "name": "STARLINK-35582",
        "group": "last-30-days",
        "lat": 31.82053527890421,
        "lon": -165.8976446561628,
        "alt_km": 410.22611541092465,
        "timestamp": "2025-12-12T09:49:07.481044+00:00",
        "meta_object_name": "STARLINK-35582",
        "meta_object_id": "2025-265X",
        "meta_epoch": "2025-12-12T04:00:01.998720",
        "meta_mean_motion": 15.50644286,
        "meta_eccentricity": 0.0001274,
        "meta_inclination": 43.0007,
        "meta_ra_of_asc_node": 57.2714,
        "meta_arg_of_pericenter": 255.4336,
        "meta_mean_anomaly": 318.9422,
        "meta_ephemeris_type": 0,
        "meta_classification_type": "U",
        "meta_norad_cat_id": 66537,
        "meta_element_set_no": 999,
        "meta_rev_at_epoch": 490,
        "meta_bstar": 0.00089144,
        "meta_mean_motion_dot": 0.00052428,
        "meta_mean_motion_ddot": 0,
        "tle_line1": "1 66537U 25265X   25346.16668980  .00052428  00000+0  89144-3 0  9990",
        "tle_line2": "2 66537  43.0007  57.2714 0001274 255.4336 318.9422 15.50644286  4904"
      },
      "geometry": {
        "type": "Point",
        "coordinates": [
          -165.8976446561628,
          31.82053527890421
        ]
      }
    },
    {
      "type": "Feature",
      "properties": {
        "norad_id": 66538,
        "name": "STARLINK-35577",
        "group": "last-30-days",
        "lat": 30.911970049928215,
        "lon": -164.13351841634298,
        "alt_km": 410.87811773031626,
        "timestamp": "2025-12-12T09:49:07.481055+00:00",
        "meta_object_name": "STARLINK-35577",
        "meta_object_id": "2025-265Y",
        "meta_epoch": "2025-12-12T04:00:01.998720",
        "meta_mean_motion": 15.5045853,
        "meta_eccentricity": 0.0001538,
        "meta_inclination": 43.0005,
        "meta_ra_of_asc_node": 57.267,
        "meta_arg_of_pericenter": 255.5333,
        "meta_mean_anomaly": 320.7504,
        "meta_ephemeris_type": 0,
        "meta_classification_type": "U",
        "meta_norad_cat_id": 66538,
        "meta_element_set_no": 999,
        "meta_rev_at_epoch": 490,
        "meta_bstar": 0.0023,
        "meta_mean_motion_dot": 0.00136376,
        "meta_mean_motion_ddot": 0,
        "tle_line1": "1 66538U 25265Y   25346.16668980  .00136376  00000+0  23000-2 0  9994",
        "tle_line2": "2 66538  43.0005  57.2670 0001538 255.5333 320.7504 15.50458530  4902"
      },
      "geometry": {
        "type": "Point",
        "coordinates": [
          -164.13351841634298,
          30.911970049928215
        ]
      }
    }
  ]
}